[
  {"OBJECT_NAME":"STARLINK-DTC-DEMO-01","NORAD_CAT_ID":99001,"OBJECT_ID":"2026-900A","EPOCH":"2026-07-18T12:00:00.000Z","ECCENTRICITY":0.000145,"INCLINATION":53.16,"RA_OF_ASC_NODE":12.0,"ARG_OF_PERICENTER":88.2,"MEAN_ANOMALY":271.9,"MEAN_MOTION":15.28,"BSTAR":0.00012,"EPHEMERIS_TYPE":0,"CLASSIFICATION_TYPE":"U","ELEMENT_SET_NO":1,"REV_AT_EPOCH":1200},
  {"OBJECT_NAME":"STARLINK-DTC-DEMO-02","NORAD_CAT_ID":99002,"OBJECT_ID":"2026-900B","EPOCH":"2026-07-18T12:00:00.000Z","ECCENTRICITY":0.000132,"INCLINATION":53.17,"RA_OF_ASC_NODE":57.0,"ARG_OF_PERICENTER":102.0,"MEAN_ANOMALY":258.1,"MEAN_MOTION":15.29,"BSTAR":0.00011,"EPHEMERIS_TYPE":0,"CLASSIFICATION_TYPE":"U","ELEMENT_SET_NO":1,"REV_AT_EPOCH":1201},
  {"OBJECT_NAME":"STARLINK-DTC-DEMO-03","NORAD_CAT_ID":99003,"OBJECT_ID":"2026-900C","EPOCH":"2026-07-18T12:00:00.000Z","ECCENTRICITY":0.000158,"INCLINATION":53.18,"RA_OF_ASC_NODE":102.0,"ARG_OF_PERICENTER":74.0,"MEAN_ANOMALY":286.2,"MEAN_MOTION":15.27,"BSTAR":0.00013,"EPHEMERIS_TYPE":0,"CLASSIFICATION_TYPE":"U","ELEMENT_SET_NO":1,"REV_AT_EPOCH":1202},
  {"OBJECT_NAME":"STARLINK-DTC-DEMO-04","NORAD_CAT_ID":99004,"OBJECT_ID":"2026-900D","EPOCH":"2026-07-18T12:00:00.000Z","ECCENTRICITY":0.000121,"INCLINATION":53.15,"RA_OF_ASC_NODE":147.0,"ARG_OF_PERICENTER":91.0,"MEAN_ANOMALY":269.1,"MEAN_MOTION":15.30,"BSTAR":0.00010,"EPHEMERIS_TYPE":0,"CLASSIFICATION_TYPE":"U","ELEMENT_SET_NO":1,"REV_AT_EPOCH":1203},
  {"OBJECT_NAME":"STARLINK-DTC-DEMO-05","NORAD_CAT_ID":99005,"OBJECT_ID":"2026-900E","EPOCH":"2026-07-18T12:00:00.000Z","ECCENTRICITY":0.000149,"INCLINATION":53.19,"RA_OF_ASC_NODE":192.0,"ARG_OF_PERICENTER":84.0,"MEAN_ANOMALY":276.2,"MEAN_MOTION":15.28,"BSTAR":0.00012,"EPHEMERIS_TYPE":0,"CLASSIFICATION_TYPE":"U","ELEMENT_SET_NO":1,"REV_AT_EPOCH":1204},
  {"OBJECT_NAME":"STARLINK-DTC-DEMO-06","NORAD_CAT_ID":99006,"OBJECT_ID":"2026-900F","EPOCH":"2026-07-18T12:00:00.000Z","ECCENTRICITY":0.000138,"INCLINATION":53.16,"RA_OF_ASC_NODE":237.0,"ARG_OF_PERICENTER":97.0,"MEAN_ANOMALY":263.0,"MEAN_MOTION":15.29,"BSTAR":0.00011,"EPHEMERIS_TYPE":0,"CLASSIFICATION_TYPE":"U","ELEMENT_SET_NO":1,"REV_AT_EPOCH":1205},
  {"OBJECT_NAME":"STARLINK-DTC-DEMO-07","NORAD_CAT_ID":99007,"OBJECT_ID":"2026-900G","EPOCH":"2026-07-18T12:00:00.000Z","ECCENTRICITY":0.000151,"INCLINATION":53.17,"RA_OF_ASC_NODE":282.0,"ARG_OF_PERICENTER":79.0,"MEAN_ANOMALY":281.1,"MEAN_MOTION":15.27,"BSTAR":0.00013,"EPHEMERIS_TYPE":0,"CLASSIFICATION_TYPE":"U","ELEMENT_SET_NO":1,"REV_AT_EPOCH":1206},
  {"OBJECT_NAME":"STARLINK-DTC-DEMO-08","NORAD_CAT_ID":99008,"OBJECT_ID":"2026-900H","EPOCH":"2026-07-18T12:00:00.000Z","ECCENTRICITY":0.000126,"INCLINATION":53.18,"RA_OF_ASC_NODE":327.0,"ARG_OF_PERICENTER":94.0,"MEAN_ANOMALY":266.1,"MEAN_MOTION":15.30,"BSTAR":0.00010,"EPHEMERIS_TYPE":0,"CLASSIFICATION_TYPE":"U","ELEMENT_SET_NO":1,"REV_AT_EPOCH":1207}
]
